SENTINEL-6              
1 46984U 20086A   24019.56007649 -.00000036  00000+0  11069-3 0  9999
2 46984  66.0406 162.0460 0007694 269.6724  90.3410 12.80930318147662
